start=new Date('2023-06-08T00:00:00.000Z').valueOf();
sats=[{"RCS_SIZE":"LARGE","FILE":"3927436","MEAN_MOTION":"15.06398549","MEAN_MOTION_DOT":"0.00000981","APOAPSIS":"547.884","DECAY_DATE":null,"OBJECT_ID":"2021-024S","MEAN_ELEMENT_THEORY":"SGP4","GP_ID":"233430946","ECCENTRICITY":"0.00009620","EPOCH":"2023-06-07T21:48:46.725696","BSTAR":"0.00008475900000","REV_AT_EPOCH":"12352","INCLINATION":"53.0540","PERIAPSIS":"546.552","MEAN_ANOMALY":"261.9692","CENTER_NAME":"EARTH","PERIOD":"95.592","ELEMENT_SET_NO":"999","RA_OF_ASC_NODE":"131.7451","EPHEMERIS_TYPE":"0","OBJECT_TYPE":"PAYLOAD","TIME_SYSTEM":"UTC","SITE":"AFETR","REF_FRAME":"TEME","ARG_OF_PERICENTER":"98.1406","LAUNCH_DATE":"2021-03-24","MEAN_MOTION_DDOT":"0.0000000000000","TLE_LINE2":"2 47993  53.0540 131.7451 0000962  98.1406 261.9692 15.06398549123526","SEMIMAJOR_AXIS":"6925.353","CLASSIFICATION_TYPE":"U","NORAD_CAT_ID":"47993","OBJECT_NAME":"STARLINK-2273","TLE_LINE1":"1 47993U 21024S   23158.90887414  .00000981  00000-0  84759-4 0  9996","COUNTRY_CODE":"US"},{"COUNTRY_CODE":"US","TLE_LINE1":"1 47994U 21024T   23158.38224661  .00000650  00000-0  62530-4 0  9994","OBJECT_NAME":"STARLINK-2290","NORAD_CAT_ID":"47994","ARG_OF_PERICENTER":"81.8077","LAUNCH_DATE":"2021-03-24","TLE_LINE2":"2 47994  53.0539 149.1048 0001216  81.8077 278.3050 15.06398591123174","SEMIMAJOR_AXIS":"6925.353","CLASSIFICATION_TYPE":"U","MEAN_MOTION_DDOT":"0.0000000000000","REF_FRAME":"TEME","TIME_SYSTEM":"UTC","SITE":"AFETR","OBJECT_TYPE":"PAYLOAD","EPHEMERIS_TYPE":"0","ELEMENT_SET_NO":"999","PERIOD":"95.592","RA_OF_ASC_NODE":"149.1048","CENTER_NAME":"EARTH","REV_AT_EPOCH":"12317","MEAN_ANOMALY":"278.3050","PERIAPSIS":"546.376","INCLINATION":"53.0539","BSTAR":"0.00006253000000","EPOCH":"2023-06-07T09:10:26.107104","ECCENTRICITY":"0.00012160","GP_ID":"233396981","MEAN_ELEMENT_THEORY":"SGP4","OBJECT_ID":"2021-024T","DECAY_DATE":null,"MEAN_MOTION_DOT":"0.00000650","APOAPSIS":"548.060","MEAN_MOTION":"15.06398591","RCS_SIZE":"LARGE","FILE":"3927174"},{"RA_OF_ASC_NODE":"112.3027","PERIOD":"95.592","ELEMENT_SET_NO":"999","CENTER_NAME":"EARTH","COUNTRY_CODE":"US","TLE_LINE1":"1 47995U 21024U   23158.85546356  .00000445  00000-0  48726-4 0  9998","OBJECT_NAME":"STARLINK-2309","NORAD_CAT_ID":"47995","TLE_LINE2":"2 47995  53.0540 112.3027 0001267  93.1026 267.0107 15.06405621123746","SEMIMAJOR_AXIS":"6925.331","MEAN_MOTION_DDOT":"0.0000000000000","CLASSIFICATION_TYPE":"U","LAUNCH_DATE":"2021-03-24","ARG_OF_PERICENTER":"93.1026","REF_FRAME":"TEME","SITE":"AFETR","TIME_SYSTEM":"UTC","OBJECT_TYPE":"PAYLOAD","EPHEMERIS_TYPE":"0","MEAN_ELEMENT_THEORY":"SGP4","OBJECT_ID":"2021-024U","DECAY_DATE":null,"APOAPSIS":"548.074","MEAN_MOTION_DOT":"0.00000445","MEAN_MOTION":"15.06405621","FILE":"3927436","RCS_SIZE":"LARGE","PERIAPSIS":"546.319","MEAN_ANOMALY":"267.0107","INCLINATION":"53.0540","REV_AT_EPOCH":"12374","BSTAR":"0.00004872600000","EPOCH":"2023-06-07T20:31:52.051584","ECCENTRICITY":"0.00012670","GP_ID":"233429945"},{"EPOCH":"2023-06-07T21:32:14.824320","ECCENTRICITY":"0.00009540","GP_ID":"233430694","REV_AT_EPOCH":"12485","MEAN_ANOMALY":"237.2163","PERIAPSIS":"546.504","INCLINATION":"53.0545","BSTAR":"0.00093926000000","MEAN_MOTION_DOT":"0.00013742","APOAPSIS":"547.826","MEAN_MOTION":"15.06415894","RCS_SIZE":"LARGE","FILE":"3927436","MEAN_ELEMENT_THEORY":"SGP4","OBJECT_ID":"2021-024V","DECAY_DATE":null,"REF_FRAME":"TEME","SITE":"AFETR","TIME_SYSTEM":"UTC","OBJECT_TYPE":"PAYLOAD","EPHEMERIS_TYPE":"0","COUNTRY_CODE":"US","TLE_LINE1":"1 47996U 21024V   23158.89739380  .00013742  00000-0  93926-3 0  9999","OBJECT_NAME":"STARLINK-2260","NORAD_CAT_ID":"47996","LAUNCH_DATE":"2021-03-24","ARG_OF_PERICENTER":"122.8917","TLE_LINE2":"2 47996  53.0545  37.0982 0000954 122.8917 237.2163 15.06415894124853","SEMIMAJOR_AXIS":"6925.300","CLASSIFICATION_TYPE":"U","MEAN_MOTION_DDOT":"0.0000000000000","ELEMENT_SET_NO":"999","PERIOD":"95.591","RA_OF_ASC_NODE":"37.0982","CENTER_NAME":"EARTH"},{"MEAN_ELEMENT_THEORY":"SGP4","OBJECT_ID":"2021-024W","DECAY_DATE":null,"APOAPSIS":"547.924","MEAN_MOTION_DOT":"0.00000313","MEAN_MOTION":"15.06399486","FILE":"3927436","RCS_SIZE":"LARGE","PERIAPSIS":"546.507","MEAN_ANOMALY":"276.2625","INCLINATION":"53.0536","REV_AT_EPOCH":"12328","BSTAR":"0.00003992100000","EPOCH":"2023-06-07T16:41:35.392992","ECCENTRICITY":"0.00010230","GP_ID":"233431446","RA_OF_ASC_NODE":"147.7030","ELEMENT_SET_NO":"999","PERIOD":"95.592","CENTER_NAME":"EARTH","COUNTRY_CODE":"US","TLE_LINE1":"1 47997U 21024W   23158.69554853  .00000313  00000-0  39921-4 0  9994","NORAD_CAT_ID":"47997","OBJECT_NAME":"STARLINK-2266","TLE_LINE2":"2 47997  53.0536 147.7030 0001023  83.8481 276.2625 15.06399486123287","SEMIMAJOR_AXIS":"6925.350","CLASSIFICATION_TYPE":"U","MEAN_MOTION_DDOT":"0.0000000000000","LAUNCH_DATE":"2021-03-24","ARG_OF_PERICENTER":"83.8481","REF_FRAME":"TEME","TIME_SYSTEM":"UTC","SITE":"AFETR","EPHEMERIS_TYPE":"0","OBJECT_TYPE":"PAYLOAD"},{"CENTER_NAME":"EARTH","ELEMENT_SET_NO":"999","PERIOD":"95.592","RA_OF_ASC_NODE":"122.0073","OBJECT_NAME":"STARLINK-2296","NORAD_CAT_ID":"47998","ARG_OF_PERICENTER":"96.1314","LAUNCH_DATE":"2021-03-24","TLE_LINE2":"2 47998  53.0546 122.0073 0001431  96.1314 263.9838 15.06402903123601","SEMIMAJOR_AXIS":"6925.340","MEAN_MOTION_DDOT":"0.0000000000000","CLASSIFICATION_TYPE":"U","COUNTRY_CODE":"US","TLE_LINE1":"1 47998U 21024X   23158.90245173  .00000365  00000-0  43368-4 0  9998","SITE":"AFETR","TIME_SYSTEM":"UTC","EPHEMERIS_TYPE":"0","OBJECT_TYPE":"PAYLOAD","REF_FRAME":"TEME","DECAY_DATE":null,"MEAN_ELEMENT_THEORY":"SGP4","OBJECT_ID":"2021-024X","MEAN_MOTION":"15.06402903","FILE":"3927436","RCS_SIZE":"LARGE","MEAN_MOTION_DOT":"0.00000365","APOAPSIS":"548.196","BSTAR":"0.00004336800000","REV_AT_EPOCH":"12360","PERIAPSIS":"546.214","MEAN_ANOMALY":"263.9838","INCLINATION":"53.0546","ECCENTRICITY":"0.00014310","GP_ID":"233431197","EPOCH":"2023-06-07T21:39:31.829472"},{"APOAPSIS":"547.971","MEAN_MOTION_DOT":"-0.00005049","MEAN_MOTION":"15.06389045","FILE":"3926859","RCS_SIZE":"LARGE","MEAN_ELEMENT_THEORY":"SGP4","OBJECT_ID":"2021-024Y","DECAY_DATE":null,"EPOCH":"2023-06-07T01:21:18.945792","ECCENTRICITY":"0.00010450","GP_ID":"233369728","MEAN_ANOMALY":"249.7994","PERIAPSIS":"546.523","INCLINATION":"53.0540","REV_AT_EPOCH":"12342","BSTAR":"-0.00032042000000","RA_OF_ASC_NODE":"95.5707","ELEMENT_SET_NO":"999","PERIOD":"95.593","CENTER_NAME":"EARTH","REF_FRAME":"TEME","SITE":"AFETR","TIME_SYSTEM":"UTC","OBJECT_TYPE":"PAYLOAD","EPHEMERIS_TYPE":"0","COUNTRY_CODE":"US","TLE_LINE1":"1 47999U 21024Y   23158.05646928 -.00005049  00000-0 -32042-3 0  9990","OBJECT_NAME":"STARLINK-2218","NORAD_CAT_ID":"47999","TLE_LINE2":"2 47999  53.0540  95.5707 0001045 110.3108 249.7994 15.06389045123421","CLASSIFICATION_TYPE":"U","SEMIMAJOR_AXIS":"6925.382","MEAN_MOTION_DDOT":"0.0000000000000","LAUNCH_DATE":"2021-03-24","ARG_OF_PERICENTER":"110.3108"},{"CENTER_NAME":"EARTH","RA_OF_ASC_NODE":"76.9122","PERIOD":"95.591","ELEMENT_SET_NO":"999","TIME_SYSTEM":"UTC","SITE":"AFETR","OBJECT_TYPE":"PAYLOAD","EPHEMERIS_TYPE":"0","REF_FRAME":"TEME","NORAD_CAT_ID":"48000","OBJECT_NAME":"STARLINK-2270","CLASSIFICATION_TYPE":"U","TLE_LINE2":"2 48000  53.0549  76.9122 0001283  92.4895 267.6241 15.06420698124240","SEMIMAJOR_AXIS":"6925.285","MEAN_MOTION_DDOT":"0.0000000000000","LAUNCH_DATE":"2021-03-24","ARG_OF_PERICENTER":"92.4895","COUNTRY_CODE":"US","TLE_LINE1":"1 48000U 21024Z   23158.91581640  .00024597  00000-0  16635-2 0  9994","MEAN_MOTION":"15.06420698","FILE":"3927436","RCS_SIZE":"LARGE","APOAPSIS":"548.039","MEAN_MOTION_DOT":"0.00024597","DECAY_DATE":null,"MEAN_ELEMENT_THEORY":"SGP4","OBJECT_ID":"2021-024Z","ECCENTRICITY":"0.00012830","GP_ID":"233430195","EPOCH":"2023-06-07T21:58:46.536960","BSTAR":"0.00166350000000","PERIAPSIS":"546.262","MEAN_ANOMALY":"267.6241","INCLINATION":"53.0549","REV_AT_EPOCH":"12424"},{"ELEMENT_SET_NO":"999","PERIOD":"95.592","RA_OF_ASC_NODE":"97.4987","CENTER_NAME":"EARTH","REF_FRAME":"TEME","TIME_SYSTEM":"UTC","SITE":"AFETR","EPHEMERIS_TYPE":"0","OBJECT_TYPE":"PAYLOAD","COUNTRY_CODE":"US","TLE_LINE1":"1 48002U 21024AB  23158.81077832  .00018002  00000-0  12243-2 0  9993","NORAD_CAT_ID":"48002","OBJECT_NAME":"STARLINK-2265","ARG_OF_PERICENTER":"99.7459","LAUNCH_DATE":"2021-03-24","TLE_LINE2":"2 48002  53.0541  97.4987 0001037  99.7459 260.3647 15.06401201123938","MEAN_MOTION_DDOT":"0.0000000000000","SEMIMAJOR_AXIS":"6925.345","CLASSIFICATION_TYPE":"U","MEAN_MOTION_DOT":"0.00018002","APOAPSIS":"547.928","MEAN_MOTION":"15.06401201","RCS_SIZE":"LARGE","FILE":"3927436","MEAN_ELEMENT_THEORY":"SGP4","OBJECT_ID":"2021-024AB","DECAY_DATE":null,"EPOCH":"2023-06-07T19:27:31.246848","ECCENTRICITY":"0.00010370","GP_ID":"233430947","REV_AT_EPOCH":"12393","PERIAPSIS":"546.492","INCLINATION":"53.0541","MEAN_ANOMALY":"260.3647","BSTAR":"0.00122430000000"},{"CENTER_NAME":"EARTH","RA_OF_ASC_NODE":"172.5387","ELEMENT_SET_NO":"999","PERIOD":"95.592","TIME_SYSTEM":"UTC","SITE":"AFETR","OBJECT_TYPE":"PAYLOAD","EPHEMERIS_TYPE":"0","REF_FRAME":"TEME","NORAD_CAT_ID":"48003","OBJECT_NAME":"STARLINK-2263","TLE_LINE2":"2 48003  53.0539 172.5387 0001159  92.3651 267.7471 15.06394427122872","CLASSIFICATION_TYPE":"U","SEMIMAJOR_AXIS":"6925.366","MEAN_MOTION_DDOT":"0.0000000000000","ARG_OF_PERICENTER":"92.3651","LAUNCH_DATE":"2021-03-24","COUNTRY_CODE":"US","TLE_LINE1":"1 48003U 21024AC  23158.73195710 -.00000322  00000-0 -27065-5 0  9990","MEAN_MOTION":"15.06394427","RCS_SIZE":"LARGE","FILE":"3927436","APOAPSIS":"548.033","MEAN_MOTION_DOT":"-0.00000322","DECAY_DATE":null,"MEAN_ELEMENT_THEORY":"SGP4","OBJECT_ID":"2021-024AC","ECCENTRICITY":"0.00011590","GP_ID":"233431697","EPOCH":"2023-06-07T17:34:01.093440","BSTAR":"-0.00000270650000","MEAN_ANOMALY":"267.7471","PERIAPSIS":"546.428","INCLINATION":"53.0539","REV_AT_EPOCH":"12287"}];
